QIANFAN-97              
1 66039U 25233G   25320.52193492  .00000940  00000+0  43925-3 0  9994
2 66039  88.9964  65.0518 0016870 119.3722 240.9155 14.19486461  4309
QIANFAN-98              
1 66040U 25233H   25320.51089390  .00001180  00000+0  48616-3 0  9995
2 66040  88.9962  65.0504 0016106 119.1319 241.1489 14.26211791  4309
QIANFAN-99              
1 66041U 25233J   25320.52169392  .00000940  00000+0  43746-3 0  9990
2 66041  88.9962  65.0513 0016548 117.4272 242.8603 14.19697686  4308
QIANFAN-100             
1 66042U 25233K   25320.51043691  .00001179  00000+0  48550-3 0  9996
2 66042  88.9962  65.0504 0016707 119.7270 240.5588 14.26242817  4306
QIANFAN-101             
1 66043U 25233L   25320.50462522  .00000687  00000+0  27809-3 0  9991
2 66043  88.9963  65.0494 0016753 117.8414 242.4479 14.26650354  4305
QIANFAN-102             
1 66044U 25233M   25320.44665013  .00001097  00000+0  49447-3 0  9993
2 66044  88.9949  65.0526 0018621 119.1421 241.1636 14.21448493  4298
QIANFAN-103             
1 66045U 25233N   25319.74551572  .00000899  00000+0  41354-3 0  9997
2 66045  89.0030  65.1304 0018438 109.9603 250.3576 14.20267395  4195
QIANFAN-104             
1 66046U 25233P   25320.51687388  .00001070  00000+0  49030-3 0  9991
2 66046  88.9960  65.0511 0016481 119.8273 240.4559 14.20601354  4305
